0 FENGYUN 1C DEB
1 31031U 99025BDZ 13281.47310480  .00000348  00000-0  20151-3 0  7158
2 31031 099.0676 009.5949 0030500 180.9571 239.0725 14.15310807338644
0 FENGYUN 1C DEB
1 31031U 99025BDZ 13286.49323068  .00000356  00000-0  20550-3 0  7175
2 31031 099.0679 014.6980 0030664 167.1667 256.8526 14.15317000339350
0 FENGYUN 1C DEB
1 31031U 99025BDZ 13289.04992046  .00000567  00000-0  31353-3 0  7185
2 31031 099.0676 017.2971 0030725 160.0933 323.4030 14.15320117339716
0 FENGYUN 1C DEB
1 31031U 99025BDZ 13291.80760888  .00000572  00000-0  31567-3 0  7193
2 31031 099.0669 020.1004 0030790 152.5611 333.9911 14.15323344340103
0 FENGYUN 1C DEB
1 31031U 99025BDZ 13294.19904412  .00000528  00000-0  29346-3 0  7206
2 31031 099.0667 022.5313 0030832 145.9888 278.5624 14.15327457340440
